SES-14                  
1 43175U 18012B   23226.97984925 -.00000286  00000+0  00000+0 0  9995
2 43175   0.0099  37.3475 0000463 137.3694  93.6505  1.00271775 20645
KANOPUS-V 3             
1 43180U 18014A   23227.03848404  .00003523  00000+0  15859-3 0  9990
2 43180  97.4095 134.3558 0001844  90.5660 269.5788 15.21730735306901
KANOPUS-V 4             
1 43181U 18014B   23227.07810306  .00003576  00000+0  16094-3 0  9995
2 43181  97.4097 134.4492 0002044  88.2890 271.8580 15.21729724306928
LEMUR-2-JIN-LUEN        
1 43182U 18014C   23226.31402940  .00006604  00000+0  47246-3 0  9991
2 43182  97.6116 127.7697 0012912 332.6435  27.4110 15.04705546302344
LEMUR-2-URAMCHANSOL     
1 43183U 18014D   23226.98672705  .00008501  00000+0  58464-3 0  9995
2 43183  97.6099 128.9763 0012980 318.6268  41.3975 15.06095867302473
LEMUR-2-KADI            
1 43184U 18014E   23226.94611071  .00008563  00000+0  60409-3 0  9991
2 43184  97.5979 128.1415 0011205 302.5835  57.4309 15.05157847302438
LEMUR-2-THENICKMOLO     
1 43185U 18014F   23226.25045256  .00007511  00000+0  52957-3 0  9993
2 43185  97.6039 127.9182 0007272 315.8442  44.2203 15.05252821302340
S-NET D                 
1 43186U 18014G   23225.99347487  .00003670  00000+0  29243-3 0  9999
2 43186  97.6197 128.6892 0015008 347.6890  12.3965 15.00884976302223
S-NET B                 
1 43187U 18014H   23225.99482366  .00003703  00000+0  29494-3 0  9991
2 43187  97.6194 128.6156 0015586 345.4704  14.6069 15.00880452302220
S-NET A                 
1 43188U 18014J   23225.99484539  .00003670  00000+0  29234-3 0  9991
2 43188  97.6201 128.7076 0015531 345.5614  14.5164 15.00882863302226
S-NET C                 
1 43189U 18014K   23226.99746607  .00003790  00000+0  30171-3 0  9995
2 43189  97.6201 129.5761 0016242 337.6833  22.3683 15.00884303300921
ZHANGHENG 1 (CSES)      
1 43194U 18015C   23227.08641776  .00011713  00000+0  52917-3 0  9990
2 43194  97.5726   3.5497 0009931 127.5329 232.6810 15.21075902307013
NUSAT-4 (ADA)           
1 43195U 18015D   23227.04765182  .00052243  00000+0  76834-3 0  9992
2 43195  97.5792  26.6158 0007833 325.8144  34.2604 15.55269810308405
GOMX-4B                 
1 43196U 18015E   23226.65861807  .00014913  00000+0  39522-3 0  9995
2 43196  97.5844  19.3886 0013416   1.1883 358.9391 15.38354134307930
GOMX-4A                 
1 43197U 18015F   23227.05172650  .00018904  00000+0  44358-3 0  9999
2 43197  97.5838  22.2082 0012501 353.3211   6.7867 15.42021069308161
NUSAT-5 (MARYAM)        
1 43204U 18015K   23227.09448942  .00055719  00000+0  77091-3 0  9997
2 43204  97.5786  27.7802 0007651 325.8177  34.2584 15.56916644308076
BEIDOU-3 M4             
1 43207U 18018A   23226.26996529 -.00000027  00000+0  00000+0 0  9995
2 43207  55.7847  97.6296 0005544   5.9652 354.1246  1.86231774 37417
BEIDOU-3 M3             
1 43208U 18018B   23226.33660851 -.00000027  00000+0  00000+0 0  9990
2 43208  55.7842  97.6318 0006691 320.1399  39.8944  1.86231628 37412
PAZ                     
1 43215U 18020A   23227.07709868  .00002592  00000+0  12663-3 0  9995
2 43215  97.4463 233.3585 0001708  85.2535 274.8895 15.19141254303566
GOES 17                 
1 43226U 18022A   23226.03681182 -.00000098  00000+0  00000+0 0  9990
2 43226   0.0133 108.8848 0001971  35.2314  86.6279  1.00270172 20021
HISPASAT 30W-6          
1 43228U 18023A   23226.98333583 -.00000223  00000+0  00000+0 0  9996
2 43228   0.0368  53.1774 0003823  65.5085 168.4426  1.00271383 20097
PODSAT                  
1 43229U 18023B   23226.45930028  .00030332  00000+0  61511-3 0  9997
2 43229  26.8611 343.8370 4302791 341.4880   6.7408  6.97262665112860
O3B FM15                
1 43231U 18024A   23226.26017318 -.00000029  00000+0  00000+0 0  9991
2 43231   0.0532 357.4278 0002767 139.4717 223.1192  5.00114543 99286
O3B FM16                
1 43232U 18024B   23225.51386907 -.00000030  00000+0  00000+0 0  9994
2 43232   0.0570 355.8092 0002797 141.0544 223.1553  5.00116296 99227
O3B FM14                
1 43233U 18024C   23223.95475266 -.00000029  00000+0  00000+0 0  9996
2 43233   0.0587 356.1151 0002992 139.6335 224.2724  5.00115766 99148
O3B FM13                
1 43234U 18024D   23224.60810359 -.00000030  00000+0  00000+0 0  9998
2 43234   0.0463 346.6045 0002786 135.6695 237.7499  5.00115441 99186
LKW-4                   
1 43236U 18025A   23227.09064929  .00009271  00000+0  39202-3 0  9996
2 43236  97.5226 352.9904 0004899 139.9210 220.2389 15.23431151300957
BEIDOU-3 M9             
1 43245U 18029A   23226.55950218 -.00000110  00000+0  00000+0 0  9999
2 43245  55.0258 335.9321 0001105 192.3047 167.7101  1.86232922 36573
BEIDOU-3 M10            
1 43246U 18029B   23226.48956846 -.00000110  00000+0  00000+0 0  9995
2 43246  55.0233 335.9634 0002815   7.5820 352.4393  1.86233120 36565
IRIDIUM 144             
1 43249U 18030A   23226.91225908  .00000335  00000+0  11257-3 0  9994
2 43249  86.4006   3.9173 0002416  90.2566 269.8906 14.34214838281483
IRIDIUM 149             
1 43250U 18030B   23225.94184802  .00000335  00000+0  11268-3 0  9997
2 43250  86.4002   4.3010 0002399  90.6958 269.4513 14.34215707281346
IRIDIUM 157             
1 43251U 18030C   23225.75156061  .00000343  00000+0  11543-3 0  9998
2 43251  86.4005   4.4108 0002007  96.3268 263.8156 14.34221130281294
IRIDIUM 140             
1 43252U 18030D   23226.67758948  .00000326  00000+0  10942-3 0  9996
2 43252  86.4006   4.0387 0002474  94.4995 265.6484 14.34218185281486
IRIDIUM 145             
1 43253U 18030E   23226.66489637  .00000339  00000+0  11399-3 0  9993
2 43253  86.4006   4.0187 0002568  84.3123 275.8366 14.34220364281417
IRIDIUM 146             
1 43254U 18030F   23226.92494631  .00000303  00000+0  10119-3 0  9993
2 43254  86.4005   3.9255 0002272  88.1074 272.0382 14.34217268281461
IRIDIUM 148             
1 43255U 18030G   23225.77693854  .00000320  00000+0  10710-3 0  9990
2 43255  86.4005   4.4329 0002117  84.5640 275.5798 14.34220347281345
IRIDIUM 142             
1 43256U 18030H   23226.93128708  .00000332  00000+0  11145-3 0  9997
2 43256  86.4003   3.8774 0002193  90.7398 269.4049 14.34219456281467
IRIDIUM 150             
1 43257U 18030J   23225.92282044  .00000324  00000+0  10860-3 0  9994
2 43257  86.4006   4.3814 0002527  95.1300 265.0184 14.34216866281368
IRIDIUM 143             
1 43258U 18030K   23226.67123883  .00000296  00000+0  98515-4 0  9995
2 43258  86.4012   4.1198 0002266  87.4842 272.6614 14.34220045281416
GAOFEN 1-02             
1 43259U 18031A   23227.12794872  .00001118  00000+0  16751-3 0  9995
2 43259  97.8601 298.5191 0005028  79.3462 280.8315 14.76543518289669
GAOFEN 1-03             
1 43260U 18031B   23227.10629214  .00001114  00000+0  16684-3 0  9993
2 43260  97.8596 298.4396 0005622 144.6608 215.4976 14.76545726289657
GAOFEN 1-04             
1 43262U 18031D   23227.08169978  .00001138  00000+0  17035-3 0  9995
2 43262  97.8604 298.4904 0004540 102.4430 257.7289 14.76540930289644
SUPERBIRD-B3            
1 43271U 18033A   23226.73495515 -.00000100  00000+0  00000+0 0  9996
2 43271   0.0282 229.8503 0001199 303.2476 216.3396  1.00272355 19640
HYLAS 4                 
1 43272U 18033B   23226.98263852 -.00000241  00000+0  00000+0 0  9997
2 43272   0.0863 268.9639 0001320 245.9588 128.4546  1.00271122 19665
YAOGAN-31 A             
1 43275U 18034A   23227.10277268 -.00000036  00000+0  83688-4 0  9992
2 43275  63.3983 237.8844 0182559   4.5030 355.7586 13.45275139262697
YAOGAN-31 B             
1 43276U 18034B   23227.10299690 -.00000019  00000+0  10821-3 0  9995
2 43276  63.3984 237.8700 0182598   4.4788 355.7820 13.45276862262697
YAOGAN-31 C             
1 43277U 18034C   23227.10280768 -.00000022  00000+0  10435-3 0  9997
2 43277  63.3993 237.1361 0182698   4.3198 355.9354 13.45275808262715
WEINA 1B                
1 43279U 18034E   23227.06478847 -.00000027  00000+0  97106-4 0  9997
2 43279  63.3986 238.2089 0182657   5.2706 355.0187 13.45229162262681
IRNSS-1I                
1 43286U 18035A   23226.71351260  .00000072  00000+0  00000+0 0  9997
2 43286  29.2027  90.5227 0019371 177.3701   6.9054  1.00276244 19661
USA 283                 
1 43339U 18036A   23220.49440257 -.00000325  00000+0  00000+0 0  9993
2 43339   0.0183  91.3716 0000187 150.3739  27.0714  1.00270324  8274
COSMOS 2526             
1 43432U 18037A   23226.79982451 -.00000352  00000+0  00000+0 0  9994
2 43432   0.0236 107.9640 0001003   7.0166 263.9371  1.00272464 19568
SENTINEL-3B             
1 43437U 18039A   23227.10881356  .00000162  00000+0  85018-4 0  9994
2 43437  98.6244 293.3824 0001455  90.4288 269.7060 14.26733615276242
ZHUHAI-1 OHS-01         
1 43439U 18040A   23227.09633562  .00015494  00000+0  50523-3 0  9996
2 43439  97.1829 275.8892 0008791 345.5882  14.5108 15.31849421294295
ZHUHAI-1 OVS-02         
1 43440U 18040B   23227.11140211  .00013993  00000+0  46389-3 0  9992
2 43440  97.1866 276.1941 0008457   0.4380 359.6868 15.31341708294309
ZHUHAI-1 OHS-02         
1 43441U 18040C   23227.13133805  .00014371  00000+0  47114-3 0  9994
2 43441  97.1994 279.2446 0009456  14.5439 345.6073 15.31687800294317
ZHUHAI-1 OHS-03         
1 43442U 18040D   23227.08706057  .00019507  00000+0  59768-3 0  9998
2 43442  97.1812 276.5607 0003952  28.6060 331.5400 15.33824561294381
ZHUHAI-1 OHS-04         
1 43443U 18040E   23227.13101463  .00014605  00000+0  48073-3 0  9996
2 43443  97.1898 277.0015 0004314 352.8599   7.2581 15.31588237294312
USA 285                 
1 43445U 18036E   23219.18092781 -.00000006  00000+0  00000+0 0  9996
2 43445   4.5457  79.0801 0009257 123.5385 193.8815  1.02112446 16252
USA 286                 
1 43446U 18036F   23225.89892843 -.00000191  00000+0  00000+0 0  9994
2 43446   4.5592  78.9538 0009023 121.1786 194.0363  1.02122400 16294
